{
  "type": "FeatureCollection",
  "generator": "overpass-turbo",
  "copyright": "The data included in this document is from www.openstreetmap.org. The data is made available under ODbL.",
  "timestamp": "2026-02-16T05:23:30Z",
  "features": [
    {
      "type": "Feature",
      "properties": {
        "@id": "relation/1382817",
        "admin_level": "8",
        "boundary": "administrative",
        "contact:website": "http://www.bnei-brak.muni.il",
        "ele": "26",
        "name": "בני ברק",
        "name:ar": "بني براك",
        "name:cs": "Bnej Brak",
        "name:en": "Bnei Brak",
        "name:fr": "Bnei Brak",
        "name:he": "בני ברק",
        "name:pl": "Bene Berak",
        "name:ru": "Бней-Брак",
        "name:ur": "بنئی برق",
        "place": "town",
        "population": "214578",
        "ref:IL:cbs": "6100",
        "source": "Israel Ministry of Interior",
        "source:date": "2013-01-30",
        "type": "boundary",
        "website": "http://www.bnei-brak.muni.il",
        "wikidata": "Q152467",
        "wikipedia": "he:בני ברק",
        "wikipedia:he": "בני ברק"
      },
      "geometry": {
        "type": "Polygon",
        "coordinates": [
          [
            [34.8458002, 32.0925062],
            [34.845867, 32.0950707],
            [34.8460863, 32.0961931],
            [34.8467251, 32.0979765],
            [34.8470428, 32.0987108],
            [34.8477483, 32.1007417],
            [34.8479342, 32.1013599],
            [34.8481127, 32.1020203],
            [34.8482268, 32.1025266],
            [34.8484498, 32.1034416],
            [34.8490399, 32.1060277],
            [34.8492899, 32.1070226],
            [34.8492517, 32.1070317],
            [34.8489556, 32.1070994],
            [34.8488867, 32.1071065],
            [34.8486356, 32.1071069],
            [34.8485286, 32.1070892],
            [34.8483635, 32.1070329],
            [34.8482141, 32.1069456],
            [34.8479282, 32.1067786],
            [34.8476444, 32.1066696],
            [34.8474582, 32.1066257],
            [34.8472867, 32.1066033],
            [34.8467623, 32.1065994],
            [34.8466562, 32.1066195],
            [34.8465585, 32.1066592],
            [34.8464673, 32.106721],
            [34.8462087, 32.1070054],
            [34.8456879, 32.107417],
            [34.8454339, 32.1076299],
            [34.8445859, 32.1080351],
            [34.8443618, 32.1081263],
            [34.8439523, 32.1082757],
            [34.8437278, 32.1083393],
            [34.8433886, 32.1084182],
            [34.8431451, 32.108431],
            [34.8429511, 32.1084192],
            [34.8427541, 32.108396],
            [34.8425817, 32.108346],
            [34.8424008, 32.1082559],
            [34.8422498, 32.1081365],
            [34.8421244, 32.1079287],
            [34.8418284, 32.1072831],
            [34.8417144, 32.1071222],
            [34.8414609, 32.1069067],
            [34.8413234, 32.1068658],
            [34.8411167, 32.1068781],
            [34.8400566, 32.10703],
            [34.8398967, 32.1070285],
            [34.8397401, 32.1069913],
            [34.8391843, 32.1065749],
            [34.8388579, 32.1063756],
            [34.838541, 32.1062433],
            [34.8377663, 32.1059198],
            [34.8370923, 32.1056993],
            [34.8360518, 32.1052103],
            [34.8358728, 32.1051637],
            [34.8334364, 32.1053165],
            [34.8325033, 32.1054987],
            [34.8319084, 32.1056474],
            [34.8307318, 32.1057934],
            [34.829669, 32.1058398],
            [34.8287154, 32.105837],
            [34.8278538, 32.1056264],
            [34.8276484, 32.1055761],
            [34.8277082, 32.1050331],
            [34.8277035, 32.1039855],
            [34.8277775, 32.1026744],
            [34.8279251, 32.1012714],
            [34.8281144, 32.1002367],
            [34.8285335, 32.0989568],
            [34.8257548, 32.0981832],
            [34.82501, 32.0979758],
            [34.8220285, 32.0971389],
            [34.8218398, 32.0970593],
            [34.8216078, 32.0969196],
            [34.8214289, 32.0967544],
            [34.8214985, 32.0966796],
            [34.8215481, 32.0966263],
            [34.8215549, 32.0966016],
            [34.8215957, 32.0964903],
            [34.8216095, 32.096432],
            [34.8216169, 32.0963704],
            [34.8216298, 32.0962886],
            [34.8217976, 32.0951003],
            [34.8222025, 32.0933526],
            [34.822576, 32.0914722],
            [34.8226422, 32.0909138],
            [34.8226184, 32.0907227],
            [34.8226197, 32.0906934],
            [34.8226699, 32.089576],
            [34.8225865, 32.088424],
            [34.8225467, 32.087875],
            [34.8224067, 32.0867849],
            [34.8220817, 32.0849429],
            [34.8250576, 32.0847387],
            [34.8261304, 32.0814707],
            [34.8272253, 32.0777472],
            [34.8274556, 32.0770653],
            [34.8276715, 32.0754365],
            [34.8280784, 32.0754875],
            [34.832341, 32.0759919],
            [34.83246, 32.0756629],
            [34.8325402, 32.0754413],
            [34.8327351, 32.0749025],
            [34.8330975, 32.0749465],
            [34.8331066, 32.0748829],
            [34.8330702, 32.0730876],
            [34.832877, 32.0719193],
            [34.8354814, 32.0712906],
            [34.8354546, 32.0712039],
            [34.8394223, 32.0699921],
            [34.8391236, 32.0695507],
            [34.8410259, 32.0690056],
            [34.8418773, 32.0701815],
            [34.8424457, 32.0710822],
            [34.8429375, 32.0720485],
            [34.8432579, 32.0728303],
            [34.8436373, 32.0741768],
            [34.8444348, 32.0785873],
            [34.8451058, 32.082009],
            [34.8453982, 32.0833132],
            [34.8457494, 32.0852523],
            [34.8457847, 32.0857593],
            [34.8458028, 32.0868529],
            [34.8457935, 32.0902528],
            [34.8458002, 32.0925062]
          ]
        ]
      },
      "id": "relation/1382817"
    }
  ]
}
