{
  "type": "FeatureCollection",
  "features": [
    {
      "type": "Feature",
      "properties": { "name": "Sample restricted zone" },
      "geometry": {
        "type": "Polygon",
        "coordinates": [[
          [-122.452, 37.702],
          [-122.448, 37.708],
          [-122.442, 37.706],
          [-122.438, 37.71],
          [-122.435, 37.705],
          [-122.44, 37.698],
          [-122.448, 37.696],
          [-122.452, 37.702]
        ]]
      }
    },
    {
      "type": "Feature",
      "properties": { "name": "Second zone" },
      "geometry": {
        "type": "Polygon",
        "coordinates": [[
          [-122.44, 37.722],
          [-122.436, 37.724],
          [-122.432, 37.72],
          [-122.434, 37.716],
          [-122.44, 37.715],
          [-122.444, 37.718],
          [-122.44, 37.722]
        ]]
      }
    }
  ]
}
